NORAD_CAT_ID,OBJECT_NAME,OBJECT_TYPE,EPOCH,MEAN_MOTION,ECCENTRICITY,INCLINATION,RA_OF_ASC_NODE,ARG_OF_PERICENTER,MEAN_ANOMALY,BSTAR,MEAN_MOTION_DOT,MEAN_MOTION_DDOT,TLE_LINE0,TLE_LINE1,TLE_LINE2,SEMIMAJOR_AXIS,PERIOD,APOGEE,PERIGEE,DECAYED
52271.0,STARLINK-3788,PAYLOAD,2022-07-19 22:00:00,15.08872925,0.0001720999999999,53.2147,314.2089,48.7063,325.9695,-0.0056025,-0.00088439,0.0,0 STARLINK-3788,1 52271U 22041L   22200.91667824 -.00088439  00000-0 -56025-2 0  9999,2 52271  53.2147 314.2089 0001721  48.7063 325.9695 15.08872925 14985,6917.78,95.435,540.835,538.4540000000002,0.0
52271.0,STARLINK-3788,PAYLOAD,2022-07-20 14:00:01,15.08838065,0.0001798,53.2136,311.2161,52.6654,345.2316,-0.0016062,-0.00025759,0.0,0 STARLINK-3788,1 52271U 22041L   22201.58334491 -.00025759  00000-0 -16062-2 0  9997,2 52271  53.2136 311.2161 0001798  52.6654 345.2316 15.08838065 15090,6917.886,95.438,540.995,538.507,0.0
52271.0,STARLINK-3788,PAYLOAD,2022-07-20 22:00:01,15.08842959,0.0001720999999999,53.2137,309.7191,49.3529,0.1786,-0.0012672,-0.00020401,0.0,0 STARLINK-3788,1 52271U 22041L   22201.91668981 -.00020401  00000-0 -12672-2 0  9990,2 52271  53.2137 309.7191 0001721  49.3529   0.1786 15.08842959  1300,6917.871,95.437,540.927,538.5459999999998,0.0
52271.0,STARLINK-3788,PAYLOAD,2022-07-21 06:00:00,15.08821871,0.0001569,53.214,308.2213,55.3238,5.7374,0.0003513,5.305e-05,0.0,0 STARLINK-3788,1 52271U 22041L   22202.25001157  .00005305  00000-0  35130-3 0  9993,2 52271  53.2140 308.2213 0001569  55.3238   5.7374 15.08821871 15193,6917.936,95.439,540.886,538.715,0.0
52271.0,STARLINK-3788,PAYLOAD,2022-07-21 14:00:01,15.08817321,0.0001703,53.214,306.7265,49.0521,23.643,-0.0002290999999999,-3.929999999999999e-05,0.0,0 STARLINK-3788,1 52271U 22041L   22202.58335648 -.00003930  00000-0 -22910-3 0  9990,2 52271  53.2140 306.7265 0001703  49.0521  23.6430 15.08817321  1303,6917.95,95.439,540.993,538.637,0.0
52271.0,STARLINK-3788,PAYLOAD,2022-07-21 22:00:00,15.08839833,0.0001652,53.214,305.2295,47.6359,36.5591,-0.0013134,-0.0002112999999999,0.0,0 STARLINK-3788,1 52271U 22041L   22202.91667824 -.00021130  00000-0 -13134-2 0  9990,2 52271  53.2140 305.2295 0001652  47.6359  36.5591 15.08839833  1309,6917.880999999999,95.438,540.889,538.6030000000002,0.0
52271.0,STARLINK-3788,PAYLOAD,2022-07-22 06:00:00,15.0882388,0.0001551999999999,53.2144,303.7319,54.2911,41.4908,0.0024421,0.00038775,0.0,0 STARLINK-3788,1 52271U 22041L   22203.25001157  .00038775  00000-0  24421-2 0  9991,2 52271  53.2144 303.7319 0001552  54.2911  41.4908 15.08823880  1302,6917.93,95.439,540.868,538.721,0.0
52271.0,STARLINK-3788,PAYLOAD,2022-07-22 12:00:00,15.08855925,0.000167,53.2143,302.6109,49.2949,325.1831,-0.00081223,-0.00013197,0.0,0 STARLINK-3788,1 52271U 22041L   22203.50001157 -.00013197  00000-0 -81223-3 0  9996,2 52271  53.2143 302.6109 0001670  49.2949 325.1831 15.08855925 15376,6917.831999999999,95.437,540.852,538.5409999999998,0.0
52271.0,STARLINK-3788,PAYLOAD,2022-07-22 22:00:00,15.08878541,0.0001695,53.2142,300.7399,49.4076,69.5792,-0.0040647,-0.00064468,0.0,0 STARLINK-3788,1 52271U 22041L   22203.91667824 -.00064468  00000-0 -40647-2 0  9991,2 52271  53.2142 300.7399 0001695  49.4076  69.5792 15.08878541  1307,6917.763000000001,95.435,540.8,538.455,0.0
52271.0,STARLINK-3788,PAYLOAD,2022-07-23 14:00:01,15.08824385,0.0001679,53.2144,297.7477,48.6272,93.6314,-0.0010744,-0.00017339,0.0,0 STARLINK-3788,1 52271U 22041L   22204.58335648 -.00017339  00000-0 -10744-2 0  9991,2 52271  53.2144 297.7477 0001679  48.6272  93.6314 15.08824385 15548,6917.928000000001,95.439,540.955,538.632,0.0
52271.0,STARLINK-3788,PAYLOAD,2022-07-23 22:00:00,15.088420499999998,0.0001571999999999,53.2141,296.2504,48.2797,105.4917,-0.0013842,-0.00022251,0.0,0 STARLINK-3788,1 52271U 22041L   22204.91667824 -.00022251  00000-0 -13842-2 0  9993,2 52271  53.2141 296.2504 0001572  48.2797 105.4917 15.08842050  1309,6917.874,95.437,540.827,538.6519999999998,0.0
52271.0,STARLINK-3788,PAYLOAD,2022-07-24 06:00:00,15.08830499,0.0001484,53.2143,294.7533,55.4055,109.9468,0.0013852,0.0002182,0.0,0 STARLINK-3788,1 52271U 22041L   22205.25001157  .00021820  00000-0  13852-2 0  9992,2 52271  53.2143 294.7533 0001484  55.4055 109.9468 15.08830499 15641,6917.909000000002,95.438,540.8009999999998,538.748,0.0
52271.0,STARLINK-3788,PAYLOAD,2022-07-24 14:00:01,15.08833764,0.0001674,53.2141,293.2587,48.6624,128.2806,-6.941300000000001e-05,-1.392e-05,0.0,0 STARLINK-3788,1 52271U 22041L   22205.58334491 -.00001392  00000-0 -69413-4 0  9998,2 52271  53.2141 293.2587 0001674  48.6624 128.2806 15.08833764  1305,6917.899,95.438,540.923,538.606,0.0
52271.0,STARLINK-3788,PAYLOAD,2022-07-24 22:00:00,15.08845855,0.0001618,53.2137,291.7612,51.307,137.2254,-0.0034595,-0.00054935,0.0,0 STARLINK-3788,1 52271U 22041L   22205.91667824 -.00054935  00000-0 -34595-2 0  9996,2 52271  53.2137 291.7612 0001618  51.3070 137.2254 15.08845855  1307,6917.861999999999,95.437,540.847,538.6080000000002,0.0
52271.0,STARLINK-3788,PAYLOAD,2022-07-25 14:00:01,15.08809679,0.0001764,53.2136,288.7697,50.8605,160.8226,0.0011893,0.00018675,0.0,0 STARLINK-3788,1 52271U 22041L   22206.58334491  .00018675  00000-0  11893-2 0  9996,2 52271  53.2136 288.7697 0001764  50.8605 160.8226 15.08809679  1300,6917.973000000001,95.439,541.058,538.618,0.0
52271.0,STARLINK-3788,PAYLOAD,2022-07-25 22:00:00,15.08838665,0.0001655,53.2133,287.2721,52.3759,170.8728,-0.0017614,-0.00028211,0.0,0 STARLINK-3788,1 52271U 22041L   22206.91667824 -.00028211  00000-0 -17614-2 0  9998,2 52271  53.2133 287.2721 0001655  52.3759 170.8728 15.08838665  1300,6917.884,95.438,540.894,538.605,0.0
52271.0,STARLINK-3788,PAYLOAD,2022-07-26 14:00:01,15.08816921,0.0001819,53.2133,284.2806,50.3213,196.0952,0.0016374,0.00025851,0.0,0 STARLINK-3788,1 52271U 22041L   22207.58334491  .00025851  00000-0  16374-2 0  9990,2 52271  53.2133 284.2806 0001819  50.3213 196.0952 15.08816921 15996,6917.951,95.439,541.0740000000002,538.558,0.0
52271.0,STARLINK-3788,PAYLOAD,2022-07-26 22:00:00,15.08846666,0.0001703,53.2132,282.7829,51.6813,206.3128,-0.0016086,-0.00025803,0.0,0 STARLINK-3788,1 52271U 22041L   22207.91667824 -.00025803  00000-0 -16086-2 0  9995,2 52271  53.2132 282.7829 0001703  51.6813 206.3128 15.08846666  1304,6917.86,95.437,540.903,538.547,0.0
52271.0,STARLINK-3788,PAYLOAD,2022-07-27 14:00:01,15.08827077,0.0001893,53.2132,279.7914,49.7209,231.4736,0.0020445999999999,0.00032391,0.0,0 STARLINK-3788,1 52271U 22041L   22208.58334491  .00032391  00000-0  20446-2 0  9993,2 52271  53.2132 279.7914 0001893  49.7209 231.4736 15.08827077 16149,6917.92,95.438,541.094,538.475,0.0
52271.0,STARLINK-3788,PAYLOAD,2022-07-27 22:00:00,15.08856519,0.0001766,53.2132,278.2935,51.3772,241.4112,-0.0012482,-0.00020107,0.0,0 STARLINK-3788,1 52271U 22041L   22208.91667824 -.00020107  00000-0 -12482-2 0  9994,2 52271  53.2132 278.2935 0001766  51.3772 241.4112 15.08856519  1303,6917.83,95.437,540.9169999999998,538.4730000000002,0.0
52271.0,STARLINK-3788,PAYLOAD,2022-07-28 06:00:00,15.08862465,0.0001766999999999,53.2133,276.7968,55.487,248.9056,-0.0003064999999999,-5.166e-05,0.0,0 STARLINK-3788,1 52271U 22041L   22209.25001157 -.00005166  00000-0 -30650-3 0  9999,2 52271  53.2133 276.7968 0001767  55.4870 248.9056 15.08862465 16243,6917.812,95.436,540.899,538.4540000000002,0.0
52271.0,STARLINK-3788,PAYLOAD,2022-07-28 14:00:01,15.0884704,0.000192,53.2133,275.302,48.6387,267.3784,0.0008148,0.00012706,0.0,0 STARLINK-3788,1 52271U 22041L   22209.58334491  .00012706  00000-0  81480-3 0  9998,2 52271  53.2133 275.3020 0001920  48.6387 267.3784 15.08847040  1301,6917.859,95.437,541.052,538.396,0.0
52271.0,STARLINK-3788,PAYLOAD,2022-07-28 22:00:00,15.08848577,0.0001742,53.2133,273.80400000000003,49.7717,277.8619,-0.0014664,-0.00023556,0.0,0 STARLINK-3788,1 52271U 22041L   22209.91667824 -.00023556  00000-0 -14664-2 0  9990,2 52271  53.2133 273.8040 0001742  49.7717 277.8619 15.08848577  1306,6917.854,95.437,540.924,538.514,0.0
52271.0,STARLINK-3788,PAYLOAD,2022-07-29 14:00:01,15.08821913,0.0001894,53.2132,270.8126,46.707,304.1211,0.002482,0.00039415,0.0,0 STARLINK-3788,1 52271U 22041L   22210.58334491  .00039415  00000-0  24820-2 0  9990,2 52271  53.2132 270.8126 0001894  46.7070 304.1211 15.08821913 16442,6917.936,95.439,541.111,538.49,0.0
52271.0,STARLINK-3788,PAYLOAD,2022-07-29 22:00:00,15.08844139,0.0001736,53.2141,269.3145,49.9873,312.4341,-0.00025378,-4.325e-05,0.0,0 STARLINK-3788,1 52271U 22041L   22210.91667824 -.00004325  00000-0 -25378-3 0  9990,2 52271  53.2141 269.3145 0001736  49.9873 312.4341 15.08844139  1307,6917.868,95.437,540.934,538.5319999999998,0.0
52271.0,STARLINK-3788,PAYLOAD,2022-07-30 06:00:00,15.08861786,0.000173,53.2152,267.8182,52.2119,321.8009,-0.0011970999999999,-0.00019301,0.0,0 STARLINK-3788,1 52271U 22041L   22211.25001157 -.00019301  00000-0 -11971-2 0  9992,2 52271  53.2152 267.8182 0001730  52.2119 321.8009 15.08861786 16541,6917.814,95.436,540.876,538.482,0.0
52271.0,STARLINK-3788,PAYLOAD,2022-07-30 14:00:01,15.08829588,0.0001868,53.2149,266.3231,46.0603,339.5704,0.0023436,0.00037197,0.0,0 STARLINK-3788,1 52271U 22041L   22211.58334491  .00037197  00000-0  23436-2 0  9998,2 52271  53.2149 266.3231 0001868  46.0603 339.5704 15.08829588  1307,6917.9119999999975,95.438,541.069,538.485,0.0
52271.0,STARLINK-3788,PAYLOAD,2022-07-30 22:00:00,15.08850514,0.0001648,53.2147,264.825,49.3222,347.9199,-0.0019201,-0.00030725,0.0,0 STARLINK-3788,1 52271U 22041L   22211.91667824 -.00030725  00000-0 -19201-2 0  9991,2 52271  53.2147 264.8250 0001648  49.3222 347.9199 15.08850514  1302,6917.848000000001,95.437,540.8530000000002,538.573,0.0
52271.0,STARLINK-3788,PAYLOAD,2022-07-31 06:00:02,15.08845092,0.0001631999999999,53.2148,263.3289,50.0235,358.86300000000006,-0.0016537,-0.00026514,0.0,0 STARLINK-3788,1 52271U 22041L   22212.25002315 -.00026514  00000-0 -16537-2 0  9997,2 52271  53.2148 263.3289 0001632  50.0235 358.8630 15.08845092 16701,6917.865,95.437,540.859,538.601,0.0
